[{"OBJECT_NAME":"YAOGAN-37","OBJECT_ID":"2023-006C","EPOCH":"2026-03-09T23:15:16.754688","MEAN_MOTION":15.16132405,"ECCENTRICITY":0.00165574,"INCLINATION":43.1974,"RA_OF_ASC_NODE":311.9793,"ARG_OF_PERICENTER":108.2694,"MEAN_ANOMALY":251.9959,"EPHEMERIS_TYPE":0,"CLASSIFICATION_TYPE":"U","NORAD_CAT_ID":55244,"ELEMENT_SET_NO":999,"REV_AT_EPOCH":17481,"BSTAR":0.00034068516,"MEAN_MOTION_DOT":6.475e-5,"MEAN_MOTION_DDOT":0},{"OBJECT_NAME":"STARCLOUD-1","OBJECT_ID":"2025-248L","EPOCH":"2026-03-08T23:33:20.923488","MEAN_MOTION":15.20134222,"ECCENTRICITY":0.00060214,"INCLINATION":45.402,"RA_OF_ASC_NODE":297.8511,"ARG_OF_PERICENTER":202.4241,"MEAN_ANOMALY":157.6383,"EPHEMERIS_TYPE":0,"CLASSIFICATION_TYPE":"U","NORAD_CAT_ID":66303,"ELEMENT_SET_NO":999,"REV_AT_EPOCH":1928,"BSTAR":0.00040463937,"MEAN_MOTION_DOT":8.636e-5,"MEAN_MOTION_DDOT":0}]
